CCSDS_OMM_VERS = 2.0
CREATION_DATE  = 
ORIGINATOR     = 

OBJECT_NAME    = CORAL
OBJECT_ID      = 1998-067YA
CENTER_NAME    = EARTH
REF_FRAME      = TEME
TIME_SYSTEM    = UTC
MEAN_ELEMENT_THEORY = SGP/SGP4

EPOCH          = 2026-03-22T02:25:09.700608
MEAN_MOTION    = 15.56342856
ECCENTRICITY   = .00121878
INCLINATION    = 51.6311
RA_OF_ASC_NODE = 9.5362
ARG_OF_PERICENTER = 219.6272
MEAN_ANOMALY   = 140.3830

EPHEMERIS_TYPE = 0
CLASSIFICATION_TYPE = U
NORAD_CAT_ID   = 67684
ELEMENT_SET_NO = 999
REV_AT_EPOCH   = 672
BSTAR          = .13310514E-2
MEAN_MOTION_DOT = .96553E-3
MEAN_MOTION_DDOT = 0

CCSDS_OMM_VERS = 2.0
CREATION_DATE  = 
ORIGINATOR     = 

OBJECT_NAME    = GXIBA-1
OBJECT_ID      = 1998-067YB
CENTER_NAME    = EARTH
REF_FRAME      = TEME
TIME_SYSTEM    = UTC
MEAN_ELEMENT_THEORY = SGP/SGP4

EPOCH          = 2026-03-22T06:33:11.551104
MEAN_MOTION    = 15.53290377
ECCENTRICITY   = .00116284
INCLINATION    = 51.6327
RA_OF_ASC_NODE = 9.1857
ARG_OF_PERICENTER = 227.8880
MEAN_ANOMALY   = 132.1122

EPHEMERIS_TYPE = 0
CLASSIFICATION_TYPE = U
NORAD_CAT_ID   = 67685
ELEMENT_SET_NO = 999
REV_AT_EPOCH   = 674
BSTAR          = .60489181E-3
MEAN_MOTION_DOT = .38654E-3
MEAN_MOTION_DDOT = 0

CCSDS_OMM_VERS = 2.0
CREATION_DATE  = 
ORIGINATOR     = 

OBJECT_NAME    = UITMSAT-2
OBJECT_ID      = 1998-067YC
CENTER_NAME    = EARTH
REF_FRAME      = TEME
TIME_SYSTEM    = UTC
MEAN_ELEMENT_THEORY = SGP/SGP4

EPOCH          = 2026-03-22T18:38:12.096096
MEAN_MOTION    = 15.54183914
ECCENTRICITY   = .00087061
INCLINATION    = 51.6324
RA_OF_ASC_NODE = 6.5508
ARG_OF_PERICENTER = 199.9594
MEAN_ANOMALY   = 160.1057

EPHEMERIS_TYPE = 0
CLASSIFICATION_TYPE = U
NORAD_CAT_ID   = 67686
ELEMENT_SET_NO = 999
REV_AT_EPOCH   = 682
BSTAR          = .97202049E-3
MEAN_MOTION_DOT = .64612E-3
MEAN_MOTION_DDOT = 0

CCSDS_OMM_VERS = 2.0
CREATION_DATE  = 
ORIGINATOR     = 

OBJECT_NAME    = HMU-SAT2
OBJECT_ID      = 1998-067YD
CENTER_NAME    = EARTH
REF_FRAME      = TEME
TIME_SYSTEM    = UTC
MEAN_ELEMENT_THEORY = SGP/SGP4

EPOCH          = 2026-03-22T22:05:19.000320
MEAN_MOTION    = 15.53146906
ECCENTRICITY   = .00083646
INCLINATION    = 51.6330
RA_OF_ASC_NODE = 6.0105
ARG_OF_PERICENTER = 203.6147
MEAN_ANOMALY   = 156.4460

EPHEMERIS_TYPE = 0
CLASSIFICATION_TYPE = U
NORAD_CAT_ID   = 67687
ELEMENT_SET_NO = 999
REV_AT_EPOCH   = 676
BSTAR          = .83799263E-3
MEAN_MOTION_DOT = .53483E-3
MEAN_MOTION_DDOT = 0

CCSDS_OMM_VERS = 2.0
CREATION_DATE  = 
ORIGINATOR     = 

OBJECT_NAME    = LEOPARD
OBJECT_ID      = 1998-067YE
CENTER_NAME    = EARTH
REF_FRAME      = TEME
TIME_SYSTEM    = UTC
MEAN_ELEMENT_THEORY = SGP/SGP4

EPOCH          = 2026-03-22T18:45:33.258816
MEAN_MOTION    = 15.53815666
ECCENTRICITY   = .00084554
INCLINATION    = 51.6331
RA_OF_ASC_NODE = 6.5849
ARG_OF_PERICENTER = 200.9650
MEAN_ANOMALY   = 159.0995

EPHEMERIS_TYPE = 0
CLASSIFICATION_TYPE = U
NORAD_CAT_ID   = 67688
ELEMENT_SET_NO = 999
REV_AT_EPOCH   = 674
BSTAR          = .90173599E-3
MEAN_MOTION_DOT = .59055E-3
MEAN_MOTION_DDOT = 0

CCSDS_OMM_VERS = 2.0
CREATION_DATE  = 
ORIGINATOR     = 

OBJECT_NAME    = CREW DRAGON 12
OBJECT_ID      = 2026-031A
CENTER_NAME    = EARTH
REF_FRAME      = TEME
TIME_SYSTEM    = UTC
MEAN_ELEMENT_THEORY = SGP/SGP4

EPOCH          = 2026-03-22T19:24:01.008864
MEAN_MOTION    = 15.48467485
ECCENTRICITY   = .00061805
INCLINATION    = 51.6342
RA_OF_ASC_NODE = 7.5089
ARG_OF_PERICENTER = 221.2634
MEAN_ANOMALY   = 138.7888

EPHEMERIS_TYPE = 0
CLASSIFICATION_TYPE = U
NORAD_CAT_ID   = 67796
ELEMENT_SET_NO = 999
REV_AT_EPOCH   = 55828
BSTAR          = .29809493E-3
MEAN_MOTION_DOT = .15711E-3
MEAN_MOTION_DDOT = 0

CCSDS_OMM_VERS = 2.0
CREATION_DATE  = 
ORIGINATOR     = 

OBJECT_NAME    = PROGRESS-MS 33
OBJECT_ID      = 2026-058A
CENTER_NAME    = EARTH
REF_FRAME      = TEME
TIME_SYSTEM    = UTC
MEAN_ELEMENT_THEORY = SGP/SGP4

EPOCH          = 2026-03-22T22:13:49.469664
MEAN_MOTION    = 16.01116596
ECCENTRICITY   = .00118549
INCLINATION    = 51.6354
RA_OF_ASC_NODE = 7.5545
ARG_OF_PERICENTER = 152.4253
MEAN_ANOMALY   = 207.7389

EPHEMERIS_TYPE = 0
CLASSIFICATION_TYPE = U
NORAD_CAT_ID   = 68319
ELEMENT_SET_NO = 999
REV_AT_EPOCH   = 4
BSTAR          = .27995865E-3
MEAN_MOTION_DOT = .155256E-2
MEAN_MOTION_DDOT = .21487231E-4

CCSDS_OMM_VERS = 2.0
CREATION_DATE  = 
ORIGINATOR     = 

OBJECT_NAME    = SL-4 R/B
OBJECT_ID      = 2026-058B
CENTER_NAME    = EARTH
REF_FRAME      = TEME
TIME_SYSTEM    = UTC
MEAN_ELEMENT_THEORY = SGP/SGP4

EPOCH          = 2026-03-22T22:07:34.642272
MEAN_MOTION    = 16.28360246
ECCENTRICITY   = .00226271
INCLINATION    = 51.6538
RA_OF_ASC_NODE = 7.6006
ARG_OF_PERICENTER = 72.3467
MEAN_ANOMALY   = 288.0023

EPHEMERIS_TYPE = 0
CLASSIFICATION_TYPE = U
NORAD_CAT_ID   = 68320
ELEMENT_SET_NO = 999
REV_AT_EPOCH   = 7
BSTAR          = .7927319E-3
MEAN_MOTION_DOT = .3453998E-1
MEAN_MOTION_DDOT = .12123736E-4

