CORAL                   
1 67684U 98067YA  26081.10080672  .00096553  00000+0  13311-2 0  9990
2 67684  51.6311   9.5362 0012187 219.6272 140.3830 15.56342856  6722
GXIBA-1                 
1 67685U 98067YB  26081.27305036  .00038654  00000+0  60489-3 0  9990
2 67685  51.6327   9.1857 0011628 227.8880 132.1122 15.53290377  6742
UITMSAT-2               
1 67686U 98067YC  26081.77652889  .00064612  00000+0  97202-3 0  9993
2 67686  51.6324   6.5508 0008706 199.9594 160.1057 15.54183914  6824
HMU-SAT2                
1 67687U 98067YD  26081.92035880  .00053483  00000+0  83799-3 0  9997
2 67687  51.6330   6.0105 0008364 203.6147 156.4460 15.53146906  6765
LEOPARD                 
1 67688U 98067YE  26081.78163494  .00059055  00000+0  90174-3 0  9991
2 67688  51.6331   6.5849 0008455 200.9650 159.0995 15.53815666  6743
CREW DRAGON 12          
1 67796U 26031A   26081.80834501  .00015711  00000+0  29809-3 0  9998
2 67796  51.6342   7.5089 0006180 221.2634 138.7888 15.48467485558285
PROGRESS-MS 33          
1 68319U 26058A   26081.92626701  .00155256  21487-4  27996-3 0  9994
2 68319  51.6354   7.5545 0011854 152.4253 207.7389 16.01116596    46
SL-4 R/B                
1 68320U 26058B   26081.92192873  .03453998  12124-4  79273-3 0  9994
2 68320  51.6538   7.6006 0022627  72.3467 288.0023 16.28360246    74
